{
  "type": "FeatureCollection",
  "features": [
    {
      "type": "Feature",
      "properties": {
        "norad_id": 38755,
        "name": "SPOT 6",
        "group": "resource",
        "lat": 23.580486035038504,
        "lon": 55.00853102349916,
        "alt_km": 696.8345214065293,
        "timestamp": "2025-12-19T22:41:52.035999+00:00",
        "meta_object_name": "SPOT 6",
        "meta_object_id": "2012-047A",
        "meta_epoch": "2025-12-19T17:38:58.102944",
        "meta_mean_motion": 14.585386,
        "meta_eccentricity": 0.000132,
        "meta_inclination": 98.1571,
        "meta_ra_of_asc_node": 58.3915,
        "meta_arg_of_pericenter": 78.0698,
        "meta_mean_anomaly": 282.0649,
        "meta_ephemeris_type": 0,
        "meta_classification_type": "U",
        "meta_norad_cat_id": 38755,
        "meta_element_set_no": 999,
        "meta_rev_at_epoch": 70689,
        "meta_bstar": 9.3423e-05,
        "meta_mean_motion_dot": 3.89e-06,
        "meta_mean_motion_ddot": 0,
        "tle_line1": "1 38755U 12047A   25353.73539471  .00000389  00000+0  93423-4 0  9993",
        "tle_line2": "2 38755  98.1571  58.3915 0001320  78.0698 282.0649 14.58538600706897"
      },
      "geometry": {
        "type": "Point",
        "coordinates": [
          55.00853102349916,
          23.580486035038504
        ]
      }
    },
    {
      "type": "Feature",
      "properties": {
        "norad_id": 39019,
        "name": "PLEIADES 1B",
        "group": "resource",
        "lat": -75.55647534747459,
        "lon": 100.43029109016805,
        "alt_km": 705.9330244819957,
        "timestamp": "2025-12-19T22:41:52.036009+00:00",
        "meta_object_name": "PLEIADES 1B",
        "meta_object_id": "2012-068A",
        "meta_epoch": "2025-12-19T18:06:57.392352",
        "meta_mean_motion": 14.58559211,
        "meta_eccentricity": 0.0001164,
        "meta_inclination": 98.1793,
        "meta_ra_of_asc_node": 66.2963,
        "meta_arg_of_pericenter": 84.9771,
        "meta_mean_anomaly": 275.1561,
        "meta_ephemeris_type": 0,
        "meta_classification_type": "U",
        "meta_norad_cat_id": 39019,
        "meta_element_set_no": 999,
        "meta_rev_at_epoch": 69469,
        "meta_bstar": 9.2981e-05,
        "meta_mean_motion_dot": 3.87e-06,
        "meta_mean_motion_ddot": 0,
        "tle_line1": "1 39019U 12068A   25353.75483093  .00000387  00000+0  92981-4 0  9996",
        "tle_line2": "2 39019  98.1793  66.2963 0001164  84.9771 275.1561 14.58559211694693"
      },
      "geometry": {
        "type": "Point",
        "coordinates": [
          100.43029109016805,
          -75.55647534747459
        ]
      }
    },
    {
      "type": "Feature",
      "properties": {
        "norad_id": 39030,
        "name": "GOKTURK 2",
        "group": "resource",
        "lat": -30.492673276443963,
        "lon": 10.681442129838008,
        "alt_km": 650.4097915016964,
        "timestamp": "2025-12-19T22:41:52.036019+00:00",
        "meta_object_name": "GOKTURK 2",
        "meta_object_id": "2012-073A",
        "meta_epoch": "2025-12-19T18:29:24.854784",
        "meta_mean_motion": 14.75299493,
        "meta_eccentricity": 0.0001236,
        "meta_inclination": 97.6888,
        "meta_ra_of_asc_node": 195.0778,
        "meta_arg_of_pericenter": 108.1482,
        "meta_mean_anomaly": 251.9863,
        "meta_ephemeris_type": 0,
        "meta_classification_type": "U",
        "meta_norad_cat_id": 39030,
        "meta_element_set_no": 999,
        "meta_rev_at_epoch": 69805,
        "meta_bstar": 3.2996e-05,
        "meta_mean_motion_dot": 1.76e-06,
        "meta_mean_motion_ddot": 0,
        "tle_line1": "1 39030U 12073A   25353.77042656  .00000176  00000+0  32996-4 0  9999",
        "tle_line2": "2 39030  97.6888 195.0778 0001236 108.1482 251.9863 14.75299493698051"
      },
      "geometry": {
        "type": "Point",
        "coordinates": [
          10.681442129838008,
          -30.492673276443963
        ]
      }
    },
    {
      "type": "Feature",
      "properties": {
        "norad_id": 39084,
        "name": "LANDSAT 8",
        "group": "resource",
        "lat": 53.77075632345491,
        "lon": 50.55301735112697,
        "alt_km": 696.8203887036025,
        "timestamp": "2025-12-19T22:41:52.036029+00:00",
        "meta_object_name": "LANDSAT 8",
        "meta_object_id": "2013-008A",
        "meta_epoch": "2025-12-19T17:30:14.213088",
        "meta_mean_motion": 14.57109295,
        "meta_eccentricity": 0.0001081,
        "meta_inclination": 98.2064,
        "meta_ra_of_asc_node": 61.6994,
        "meta_arg_of_pericenter": 90.1855,
        "meta_mean_anomaly": 269.9467,
        "meta_ephemeris_type": 0,
        "meta_classification_type": "U",
        "meta_norad_cat_id": 39084,
        "meta_element_set_no": 999,
        "meta_rev_at_epoch": 67176,
        "meta_bstar": 7.4137e-05,
        "meta_mean_motion_dot": 2.89e-06,
        "meta_mean_motion_ddot": 0,
        "tle_line1": "1 39084U 13008A   25353.72933117  .00000289  00000+0  74137-4 0  9991",
        "tle_line2": "2 39084  98.2064  61.6994 0001081  90.1855 269.9467 14.57109295671761"
      },
      "geometry": {
        "type": "Point",
        "coordinates": [
          50.55301735112697,
          53.77075632345491
        ]
      }
    },
    {
      "type": "Feature",
      "properties": {
        "norad_id": 39086,
        "name": "SARAL",
        "group": "resource",
        "lat": 49.56679615137586,
        "lon": 7.951606145997302,
        "alt_km": 776.248626871904,
        "timestamp": "2025-12-19T22:41:52.036039+00:00",
        "meta_object_name": "SARAL",
        "meta_object_id": "2013-009A",
        "meta_epoch": "2025-12-19T18:44:35.177280",
        "meta_mean_motion": 14.32759303,
        "meta_eccentricity": 0.0002955,
        "meta_inclination": 98.5502,
        "meta_ra_of_asc_node": 177.6194,
        "meta_arg_of_pericenter": 95.2625,
        "meta_mean_anomaly": 264.8896,
        "meta_ephemeris_type": 0,
        "meta_classification_type": "U",
        "meta_norad_cat_id": 39086,
        "meta_element_set_no": 999,
        "meta_rev_at_epoch": 66991,
        "meta_bstar": 4.6766e-05,
        "meta_mean_motion_dot": 8.4e-07,
        "meta_mean_motion_ddot": 0,
        "tle_line1": "1 39086U 13009A   25353.78096270  .00000084  00000+0  46766-4 0  9990",
        "tle_line2": "2 39086  98.5502 177.6194 0002955  95.2625 264.8896 14.32759303669913"
      },
      "geometry": {
        "type": "Point",
        "coordinates": [
          7.951606145997302,
          49.56679615137586
        ]
      }
    },
    {
      "type": "Feature",
      "properties": {
        "norad_id": 39150,
        "name": "GAOFEN-1",
        "group": "resource",
        "lat": -38.835035774892404,
        "lon": 70.9228942526719,
        "alt_km": 659.013815289667,
        "timestamp": "2025-12-19T22:41:52.036049+00:00",
        "meta_object_name": "GAOFEN-1",
        "meta_object_id": "2013-018A",
        "meta_epoch": "2025-12-19T17:59:47.266368",
        "meta_mean_motion": 14.76491034,
        "meta_eccentricity": 0.0018338,
        "meta_inclination": 97.9325,
        "meta_ra_of_asc_node": 64.2856,
        "meta_arg_of_pericenter": 121.7213,
        "meta_mean_anomaly": 238.5787,
        "meta_ephemeris_type": 0,
        "meta_classification_type": "U",
        "meta_norad_cat_id": 39150,
        "meta_element_set_no": 999,
        "meta_rev_at_epoch": 68176,
        "meta_bstar": 5.6459e-05,
        "meta_mean_motion_dot": 3.43e-06,
        "meta_mean_motion_ddot": 0,
        "tle_line1": "1 39150U 13018A   25353.74985262  .00000343  00000+0  56459-4 0  9994",
        "tle_line2": "2 39150  97.9325  64.2856 0018338 121.7213 238.5787 14.76491034681763"
      },
      "geometry": {
        "type": "Point",
        "coordinates": [
          70.9228942526719,
          -38.835035774892404
        ]
      }
    },
    {
      "type": "Feature",
      "properties": {
        "norad_id": 39160,
        "name": "VNREDSAT 1",
        "group": "resource",
        "lat": 79.26713195173492,
        "lon": 1.5739286107583497,
        "alt_km": 669.0699528047462,
        "timestamp": "2025-12-19T22:41:52.036059+00:00",
        "meta_object_name": "VNREDSAT 1",
        "meta_object_id": "2013-021B",
        "meta_epoch": "2025-12-19T17:24:13.123296",
        "meta_mean_motion": 14.64932754,
        "meta_eccentricity": 0.0001222,
        "meta_inclination": 97.937,
        "meta_ra_of_asc_node": 48.7557,
        "meta_arg_of_pericenter": 80.8091,
        "meta_mean_anomaly": 279.3251,
        "meta_ephemeris_type": 0,
        "meta_classification_type": "U",
        "meta_norad_cat_id": 39160,
        "meta_element_set_no": 999,
        "meta_rev_at_epoch": 67401,
        "meta_bstar": 0.00010655,
        "meta_mean_motion_dot": 5.24e-06,
        "meta_mean_motion_ddot": 0,
        "tle_line1": "1 39160U 13021B   25353.72515189  .00000524  00000+0  10655-3 0  9992",
        "tle_line2": "2 39160  97.9370  48.7557 0001222  80.8091 279.3251 14.64932754674017"
      },
      "geometry": {
        "type": "Point",
        "coordinates": [
          1.5739286107583497,
          79.26713195173492
        ]
      }
    }
  ]
}